{
    "links": {
        "self": "http://www.neowsapp.com/rest/v1/neo/3601558?api_key=iIulBulltgU6a56xZRHN4H3l9WmuAYTsLGpBGhQ2"
    },
    "id": "3601558",
    "neo_reference_id": "3601558",
    "name": "(2012 FB14)",
    "designation": "2012 FB14",
    "nasa_jpl_url": "http://ssd.jpl.nasa.gov/sbdb.cgi?sstr=3601558",
    "absolute_magnitude_h": 27.0,
    "estimated_diameter": {
        "kilometers": {
            "estimated_diameter_min": 0.0105816886,
            "estimated_diameter_max": 0.023661375
        },
        "meters": {
            "estimated_diameter_min": 10.5816885933,
            "estimated_diameter_max": 23.6613750114
        },
        "miles": {
            "estimated_diameter_min": 0.0065751544,
            "estimated_diameter_max": 0.0147024923
        },
        "feet": {
            "estimated_diameter_min": 34.7168272045,
            "estimated_diameter_max": 77.6291855923
        }
    },
    "is_potentially_hazardous_asteroid": false,
    "close_approach_data": [
        {
            "close_approach_date": "2012-03-19",
            "close_approach_date_full": "2012-Mar-19 12:43",
            "epoch_date_close_approach": 1332160980000,
            "relative_velocity": {
                "kilometers_per_second": "7.3021968996",
                "kilometers_per_hour": "26287.9088386382",
                "miles_per_hour": "16334.2842447638"
            },
            "miss_distance": {
                "astronomical": "0.0451653689",
                "lunar": "17.5693285021",
                "kilometers": "6756642.985204243",
                "miles": "4198383.2693868334"
            },
            "orbiting_body": "Earth"
        }
    ],
    "orbital_data": {
        "orbit_id": "4",
        "orbit_determination_date": "2017-04-06 08:50:25",
        "first_observation_date": "2012-03-21",
        "last_observation_date": "2012-03-22",
        "data_arc_in_days": 1,
        "observations_used": 16,
        "orbit_uncertainty": "9",
        "minimum_orbit_intersection": ".0451496",
        "jupiter_tisserand_invariant": "3.621",
        "epoch_osculation": "2456008.5",
        "eccentricity": ".4925326857275332",
        "semi_major_axis": "2.049179966275705",
        "inclination": "7.919404229198078",
        "ascending_node_longitude": "180.6062044198581",
        "orbital_period": "1071.441783915911",
        "perihelion_distance": "1.039891853946876",
        "perihelion_argument": "354.3904734963462",
        "aphelion_distance": "3.058468078604534",
        "perihelion_time": "2456002.376195036628",
        "mean_anomaly": "2.057573094411763",
        "mean_motion": ".3359958566150652",
        "equinox": "J2000",
        "orbit_class": {
            "orbit_class_type": "AMO",
            "orbit_class_description": "Near-Earth asteroid orbits similar to that of 1221 Amor",
            "orbit_class_range": "1.017 AU < q (perihelion) < 1.3 AU"
        }
    },
    "is_sentry_object": false
}